#dP2021  9  3  0  0  0.00000000      96 __u+U ITR00 FIT  IAC
## 2173 432000.00000000   900.00000000 59460 0.0000000000000
+  111   C06C07C09C10C11C12C13C14C16C19C20C21C22C23C24C25C26
+        C27C28C29C30C32C33C34C35C36C37C39C40C41C42C43C44C45
+        C46E01E02E03E04E05E07E08E09E11E12E13E14E15E18E19E21
+        E24E25E26E27E30E31E33E36G01G02G03G04G05G06G07G08G09
+        G10G12G13G14G15G16G17G18G19G20G21G22G23G24G25G26G27
+        G28G29G30G31G32R01R02R03R04R05R07R08R09R11R12R13R14
+        R15R16R17R18R19R20R21R22R24  0  0  0  0  0  0  0  0
++         8  7  7  8  4  7  5  7  8  7  7  6  7  7  6  8  8
++         5  6  6  6  7  7  8  7  8  7  7  7  8  9  7  6  6
++         7  6  7  7  5  6  5  7  5  7  7  5  7  6  7  6  6
++         5  8  5  6  7  6  7  7  6  6  6  7  5  6  7  6  6
++         6  6  8  6  6  5  7  7  6  5  6  6  6  6  7  6  0
++         6  6  6  6  7  6  7  5  6  8  6  7  7  8  6  8  5
++         7  5  6  6  6  6  7  8  6  0  0  0  0  0  0  0  0
%c M  cc GPS ccc cccc cccc cccc cccc ccccc ccccc ccccc ccccc
%c cc cc ccc ccc cccc cccc cccc cccc ccccc ccccc ccccc ccccc
%f  0.0000000  0.000000000  0.00000000000  0.000000000000000
%f  0.0000000  0.000000000  0.00000000000  0.000000000000000
%i    0    0    0    0      0      0      0      0         0
%i    0    0    0    0      0      0      0      0         0
/* INFORMATION & ANALYSIS CENTER (IAC)      ULTRA-RAPID DATA
/* S/V CLOCKS ARE ALIGNED TO GNSS TIME                      
/* G:C1WC2W R:C1PC2P E:C1XC5X C:C2IC6I J:C1CC2S             
/* PCV:IGS14_2163 OL/AL:FES2004  NONE     YN ORB:CoN CLK:CoN
*  2021 09 03  7 15  0.00000000
PC06  -6483.792717  40170.673401  11381.946671    845.007443
PC07  -6736.368196  25955.496056 -32518.542607    -60.250405
PC09  -1250.935998  42362.615965   1759.994964    -76.629931
PC10    434.600136  27700.030707 -31446.299118     -3.097021
PC11 -14241.253899  -9153.841130 -22134.739871    553.551044
PC12  -6608.364233 -24895.058050 -10744.908741    766.502787
PC13 -10517.696995  29480.516390  28219.464887    396.121206
PC14 -25221.667247 -11293.128438   4118.365438    672.780964
PC16  -7530.157336  39287.554551  13798.814303   -827.801423
PC19  24413.816412   3802.233719 -12935.733900    967.497430
PC20  22588.982833  15953.773536   3621.738698   -807.970500
PC21  -7114.773506 -19241.136347 -18919.180583   -934.466699
PC22  12131.276049 -11002.132157 -22596.778285   -950.549388
PC23 -20609.333548  17430.266208  -7070.313754   -961.004305
PC24 -14652.212796  -9620.161460  21711.602646   -964.546212
PC25 -25187.793153   6832.183400   9854.252666   -860.604996
PC26   2747.317626 -18724.802383  20515.187040    855.421840
PC27    803.383585  27829.214072   1962.373434    591.258296
PC28 -10652.718649  21098.223387 -14826.408492    -30.941983
PC29  15776.874471  -2603.792849  22862.232190    442.038479
PC30  12219.175138  18296.915299  17167.565711    479.482598
PC32   7160.459086  19182.670723  18963.546069   -939.354090
PC33 -24491.558742  -3728.403363  12862.629232   -970.162498
PC34 -12567.072778 -17547.697302 -17690.598607   -590.588536
PC35  10158.941634 -21140.567033  15092.918627   -109.831800
PC36  25283.109064  -5970.753968 -10159.325165   -752.844327
PC37  -4165.538711  18877.541580 -20093.773839   -863.005886
PC39  -9615.061594  35917.022834  20016.681328     33.074250
PC40 -10782.370701  19763.562154 -35646.401478    195.975312
PC41 -12475.456439  10837.804042  22528.943746   -945.183219
PC42 -22227.822611 -16304.560700  -4363.463928 999999.999999
PC43 -15945.171281   1874.789695 -22833.787512   -897.089138
PC44  -1660.865244 -27785.411826  -1795.700457    373.142795
PC45  20482.912301 -17515.655354   7290.228806    537.639941
PC46  15657.288989   8613.796629 -21427.623870    102.708913
PE01  23696.884238 -10365.446678  14403.858633  -1185.199377
PE02 -23593.448941  10428.786153 -14500.901946    244.275379
PE03 -12421.594511  12110.864897  23978.358086   -470.587471
PE04  -3237.332711 -25325.369208 -14977.813433   -848.627745
PE05 -21038.682050  -8428.439558  19042.300058   -252.282178
PE07  17296.382379  23815.400070  -3070.582182   -581.369953
PE08   3722.862618  25375.535672  14764.241326   5943.851126
PE09 -17489.716800 -23667.823058   3271.592222   5544.527864
PE11  -7696.697672 -17277.081470 -22780.451299   5484.627324
PE12   7959.771131 -27168.333354  -8636.060053   5028.551989
PE13   7324.765557  17625.172540  22621.731963    421.048555
PE14  14177.179012  -5195.156996  18300.114760  -1557.651478
PE15  -7899.758133  27181.522974   8648.306032    794.440195
PE18 -20734.866377   2069.541778 -24695.918147  -1709.113927
PE19  13873.254407  -9751.270720 -24259.010287    368.167272
PE21  29425.108477   1159.321542  -2983.471368   -685.715474
PE24 -17439.945971 -13146.513460  19968.138021  -1097.317978
PE25 -29395.977572  -1324.409302   3226.343952   -545.353966
PE26  18630.469599  -3159.993479  22784.988378   1387.626817
PE27  18440.011715  12603.932497 -19414.325821   -112.016782
PE30  -4694.689733  16510.548749 -24113.369035   2650.349921
PE31   3308.291587 -16563.242219  24323.372268   -485.150444
PE33  18433.303052 -20704.306021  10381.928623   -465.448821
PE36 -18189.587799   2261.498290 -23243.126760   -257.189477
PG01  13294.527495 -22238.414963  -5230.615278    578.722518
PG02 -19072.175382   9651.353996 -15160.501561   -630.167294
PG03  10432.438939 -12921.991427 -20807.357130   -276.294661
PG04   3085.492581 -21765.141299 -14855.901358   -204.274749
PG05 -22055.813794   6978.462982  13028.126661    -53.184159
PG06 -14964.667769  -4065.896713 -21512.402632     67.346830
PG07    526.608779 -20365.094063  17143.861011    237.916145
PG08  10349.548897 -12542.512359  20926.114330    -35.047536
PG09  -6766.990350 -25169.414020  -5117.412647   -360.277116
PG10  20193.891532  11762.788111  13000.040603   -195.516326
PG12 -11743.298990  11995.803891 -20800.720532    -91.986204
PG13 -14379.423512   4202.695361  21788.447827    180.199463
PG14 -19834.013004 -12590.475273  12438.970433      9.577567
PG15  -9233.667534  14180.500256  20014.576023   -123.823739
PG16  25103.895342   -501.183838   9090.095031   -384.300482
PG17 -12796.950095 -21766.716607  -7792.695285    499.078812
PG18    475.730690  19254.786523  18236.131768    326.467912
PG19 -15459.446323 -14810.257939 -16094.784919     47.994999
PG20 -26302.853284   1593.117114   1828.257707    519.325105
PG21  17011.238099 -19606.270674   4710.803516    140.720463
PG22  17549.633942 -11265.864593 -16157.893110   -522.506451
PG23   9227.005178  14929.216765  19931.813463     62.396272
PG24 -14675.431669  21868.978863     45.511528    225.613600
PG25    288.509215  15494.333437 -21848.931624    201.976906
PG26  26114.438123   4706.560158  -3127.940856    129.959568
PG27      0.000000      0.000000      0.000000 999999.999999
PG28 -23210.139994 -10699.265320   7389.991838    508.178937
PG29   2963.358373  25312.287054  -7403.526860   -405.984215
PG30  -9878.955236 -12606.796959  21235.428208   -468.990622
PG31  16893.890648   2329.009157 -20564.135906   -137.741247
PG32  15760.537392  18619.346166 -10603.259698      2.751830
PR01  20785.865343  13626.606399  -5714.790940     84.798966
PR02  14158.863991   -868.199736 -21178.534683    491.960692
PR03   -345.618764 -13749.947848 -21431.039235     42.299790
PR04 -14496.085833 -18607.404306  -9677.286768    102.977237
PR05 -20467.861270 -13242.784907   7473.883839     78.281534
PR07    989.323957  14184.676960  21221.981398    -41.397185
PR08  14498.541959  18653.285577   9699.684683    -60.740541
PR09 -23467.184888   9815.327337  -2357.165571     11.306504
PR11   5303.100520   9637.371749 -22997.439809     47.750955
PR12  20917.855300    -12.821384 -14575.971507    258.907886
PR13  23649.493455  -9426.689554   1540.798872    -60.033602
PR14  12235.517725 -13513.720271  17851.671735     68.385732
PR15  -5883.512232  -9575.787425  22925.773656    101.714633
PR16 -21455.645215   1060.197950  13639.250047    -20.733445
PR17   6723.919677 -24258.792971   4281.217920    455.304282
PR18  -1164.332759 -22253.018631 -12365.493794     89.149589
PR19  -7902.215980  -9704.914044 -22233.143501   -157.883970
PR20 -11563.577863  11765.609618 -19464.100260    -55.234778
PR21  -6267.758980  24526.928608  -2978.875460   -236.355430
PR22   1476.513924  21813.447457  13195.495636   -131.217973
PR24  11688.666555 -12564.902703  18894.793949     57.102047
EOF
